start=new Date('2021-10-09T00:00:00.000Z').valueOf();
sats=[{"MEAN_MOTION_DOT":"-0.00000264","ARG_OF_PERICENTER":"75.4816","PERIOD":"95.592","OBJECT_NAME":"STARLINK-2615","APOAPSIS":"548.479","NORAD_CAT_ID":"48678","REF_FRAME":"TEME","BSTAR":"0.00000118800000","ECCENTRICITY":"0.00018200","OBJECT_ID":"2021-044AS","CLASSIFICATION_TYPE":"U","MEAN_ANOMALY":"284.6375","ELEMENT_SET_NO":"999","TIME_SYSTEM":"UTC","EPHEMERIS_TYPE":"0","CENTER_NAME":"EARTH","MEAN_ELEMENT_THEORY":"SGP4","FILE":"3152020","SEMIMAJOR_AXIS":"6925.354","SITE":"AFETR","TLE_LINE2":"2 48678  53.0560 151.6750 0001820  75.4816 284.6375 15.06398232 20760","RCS_SIZE":"LARGE","PERIAPSIS":"545.959","TLE_LINE1":"1 48678U 21044AS  21281.90516308 -.00000264  00000-0  11880-5 0  9996","OBJECT_TYPE":"PAYLOAD","COUNTRY_CODE":"US","RA_OF_ASC_NODE":"151.6750","MEAN_MOTION":"15.06398232","MEAN_MOTION_DDOT":"0.0000000000000","REV_AT_EPOCH":"2076","LAUNCH_DATE":"2021-05-26","INCLINATION":"53.0560","GP_ID":"186597551","EPOCH":"2021-10-08T21:43:26.090112","DECAY_DATE":null},{"EPHEMERIS_TYPE":"0","CENTER_NAME":"EARTH","ELEMENT_SET_NO":"999","TIME_SYSTEM":"UTC","MEAN_ANOMALY":"290.2943","CLASSIFICATION_TYPE":"U","BSTAR":"0.00014620000000","ECCENTRICITY":"0.00017220","OBJECT_ID":"2021-044AT","OBJECT_NAME":"STARLINK-2648","APOAPSIS":"548.426","NORAD_CAT_ID":"48679","REF_FRAME":"TEME","MEAN_MOTION_DOT":"0.00001896","ARG_OF_PERICENTER":"69.8231","PERIOD":"95.593","INCLINATION":"53.0559","GP_ID":"186597762","EPOCH":"2021-10-08T21:38:07.896192","DECAY_DATE":null,"MEAN_MOTION_DDOT":"0.0000000000000","REV_AT_EPOCH":"2076","LAUNCH_DATE":"2021-05-26","COUNTRY_CODE":"US","RA_OF_ASC_NODE":"151.6929","MEAN_MOTION":"15.06393468","OBJECT_TYPE":"PAYLOAD","TLE_LINE2":"2 48679  53.0559 151.6929 0001722  69.8231 290.2943 15.06393468 20766","SITE":"AFETR","RCS_SIZE":"LARGE","PERIAPSIS":"546.041","TLE_LINE1":"1 48679U 21044AT  21281.90148028  .00001896  00000-0  14620-3 0  9991","SEMIMAJOR_AXIS":"6925.369","MEAN_ELEMENT_THEORY":"SGP4","FILE":"3152020"},{"EPOCH":"2021-10-08T21:32:49.177824","DECAY_DATE":null,"INCLINATION":"53.0548","GP_ID":"186597444","LAUNCH_DATE":"2021-05-26","MEAN_MOTION_DDOT":"0.0000000000000","REV_AT_EPOCH":"2076","RA_OF_ASC_NODE":"151.7061","MEAN_MOTION":"15.06391951","COUNTRY_CODE":"US","OBJECT_TYPE":"PAYLOAD","PERIAPSIS":"546.106","RCS_SIZE":"LARGE","TLE_LINE1":"1 48680U 21044AU  21281.89779141 -.00001681  00000-0 -93982-4 0  9990","TLE_LINE2":"2 48680  53.0548 151.7061 0001635  75.5105 284.6065 15.06391951 20768","SITE":"AFETR","SEMIMAJOR_AXIS":"6925.373","FILE":"3152020","MEAN_ELEMENT_THEORY":"SGP4","EPHEMERIS_TYPE":"0","CENTER_NAME":"EARTH","ELEMENT_SET_NO":"999","TIME_SYSTEM":"UTC","MEAN_ANOMALY":"284.6065","CLASSIFICATION_TYPE":"U","OBJECT_ID":"2021-044AU","BSTAR":"-0.00009398200000","ECCENTRICITY":"0.00016350","REF_FRAME":"TEME","NORAD_CAT_ID":"48680","OBJECT_NAME":"STARLINK-2649","APOAPSIS":"548.371","PERIOD":"95.593","ARG_OF_PERICENTER":"75.5105","MEAN_MOTION_DOT":"-0.00001681"},{"OBJECT_NAME":"STARLINK-2725","APOAPSIS":"548.486","NORAD_CAT_ID":"48681","REF_FRAME":"TEME","MEAN_MOTION_DOT":"0.00026003","PERIOD":"95.593","ARG_OF_PERICENTER":"51.4366","CLASSIFICATION_TYPE":"U","BSTAR":"0.00175860000000","ECCENTRICITY":"0.00017880","OBJECT_ID":"2021-044AV","ELEMENT_SET_NO":"999","TIME_SYSTEM":"UTC","MEAN_ANOMALY":"273.5052","EPHEMERIS_TYPE":"0","CENTER_NAME":"EARTH","SEMIMAJOR_AXIS":"6925.383","MEAN_ELEMENT_THEORY":"SGP4","FILE":"3152020","TLE_LINE2":"2 48681  53.0255 121.4415 0001788  51.4366 273.5052 15.06388849  3623","SITE":"AFETR","RCS_SIZE":"LARGE","PERIAPSIS":"546.009","TLE_LINE1":"1 48681U 21044AV  21282.00001157  .00026003  00000-0  17586-2 0  9997","COUNTRY_CODE":"US","RA_OF_ASC_NODE":"121.4415","MEAN_MOTION":"15.06388849","OBJECT_TYPE":"PAYLOAD","INCLINATION":"53.0255","GP_ID":"186597658","EPOCH":"2021-10-09T00:00:00.999648","DECAY_DATE":null,"MEAN_MOTION_DDOT":"0.0000000000000","REV_AT_EPOCH":"362","LAUNCH_DATE":"2021-05-26"},{"CENTER_NAME":"EARTH","EPHEMERIS_TYPE":"0","TIME_SYSTEM":"UTC","ELEMENT_SET_NO":"999","MEAN_ANOMALY":"141.6921","CLASSIFICATION_TYPE":"U","ECCENTRICITY":"0.00015220","BSTAR":"-0.02448600000000","OBJECT_ID":"2021-044AW","APOAPSIS":"431.662","OBJECT_NAME":"STARLINK-2743","REF_FRAME":"TEME","NORAD_CAT_ID":"48682","MEAN_MOTION_DOT":"-0.01071877","PERIOD":"93.188","ARG_OF_PERICENTER":"55.9070","GP_ID":"186597211","INCLINATION":"53.0401","DECAY_DATE":null,"EPOCH":"2021-10-09T00:00:00.999648","REV_AT_EPOCH":"369","MEAN_MOTION_DDOT":"0.0000000000000","LAUNCH_DATE":"2021-05-26","COUNTRY_CODE":"US","RA_OF_ASC_NODE":"113.8200","MEAN_MOTION":"15.45256829","OBJECT_TYPE":"PAYLOAD","TLE_LINE2":"2 48682  53.0401 113.8200 0001522  55.9070 141.6921 15.45256829  3693","SITE":"AFETR","TLE_LINE1":"1 48682U 21044AW  21282.00001157 -.01071877  00000-0 -24486-1 0  9996","RCS_SIZE":"LARGE","PERIAPSIS":"429.589","SEMIMAJOR_AXIS":"6808.761","MEAN_ELEMENT_THEORY":"SGP4","FILE":"3152020"},{"OBJECT_ID":"2021-044AX","ECCENTRICITY":"0.00013150","BSTAR":"-0.02330300000000","CLASSIFICATION_TYPE":"U","ARG_OF_PERICENTER":"69.7704","PERIOD":"93.095","MEAN_MOTION_DOT":"-0.01076020","NORAD_CAT_ID":"48683","REF_FRAME":"TEME","APOAPSIS":"426.962","OBJECT_NAME":"STARLINK-2756","CENTER_NAME":"EARTH","EPHEMERIS_TYPE":"0","MEAN_ANOMALY":"193.2563","TIME_SYSTEM":"UTC","ELEMENT_SET_NO":"999","TLE_LINE1":"1 48683U 21044AX  21282.00001157 -.01076020  00000-0 -23303-1 0  9999","PERIAPSIS":"425.172","RCS_SIZE":"LARGE","SITE":"AFETR","TLE_LINE2":"2 48683  53.0410 113.7396 0001315  69.7704 193.2563 15.46809962  3694","FILE":"3152020","MEAN_ELEMENT_THEORY":"SGP4","SEMIMAJOR_AXIS":"6804.202","LAUNCH_DATE":"2021-05-26","REV_AT_EPOCH":"369","MEAN_MOTION_DDOT":"0.0000000000000","DECAY_DATE":null,"EPOCH":"2021-10-09T00:00:00.999648","GP_ID":"186597850","INCLINATION":"53.0410","OBJECT_TYPE":"PAYLOAD","RA_OF_ASC_NODE":"113.7396","MEAN_MOTION":"15.46809962","COUNTRY_CODE":"US"},{"GP_ID":"186597104","INCLINATION":"53.0553","DECAY_DATE":null,"EPOCH":"2021-10-08T20:07:13.388160","REV_AT_EPOCH":"2110","MEAN_MOTION_DDOT":"0.0000000000000","LAUNCH_DATE":"2021-05-26","COUNTRY_CODE":"US","MEAN_MOTION":"15.06396982","RA_OF_ASC_NODE":"126.9751","OBJECT_TYPE":"PAYLOAD","TLE_LINE2":"2 48684  53.0553 126.9751 0001896  69.5848 290.5345 15.06396982 21109","SITE":"AFETR","TLE_LINE1":"1 48684U 21044AY  21281.83834940  .00000660  00000-0  63240-4 0  9995","RCS_SIZE":"LARGE","PERIAPSIS":"545.910","SEMIMAJOR_AXIS":"6925.358","FILE":"3152020","MEAN_ELEMENT_THEORY":"SGP4","CENTER_NAME":"EARTH","EPHEMERIS_TYPE":"0","TIME_SYSTEM":"UTC","ELEMENT_SET_NO":"999","MEAN_ANOMALY":"290.5345","CLASSIFICATION_TYPE":"U","ECCENTRICITY":"0.00018960","BSTAR":"0.00006324000000","OBJECT_ID":"2021-044AY","APOAPSIS":"548.536","OBJECT_NAME":"STARLINK-2741","NORAD_CAT_ID":"48684","REF_FRAME":"TEME","MEAN_MOTION_DOT":"0.00000660","ARG_OF_PERICENTER":"69.5848","PERIOD":"95.592"},{"RA_OF_ASC_NODE":"114.1599","MEAN_MOTION":"15.48747854","COUNTRY_CODE":"US","OBJECT_TYPE":"PAYLOAD","EPOCH":"2021-10-08T22:00:00.999936","DECAY_DATE":null,"INCLINATION":"53.0439","GP_ID":"186597319","LAUNCH_DATE":"2021-05-26","MEAN_MOTION_DDOT":"0.0000000000000","REV_AT_EPOCH":"368","SEMIMAJOR_AXIS":"6798.525","FILE":"3152020","MEAN_ELEMENT_THEORY":"SGP4","PERIAPSIS":"419.342","RCS_SIZE":"LARGE","TLE_LINE1":"1 48685U 21044AZ  21281.91667824 -.01082721  00000-0 -21919-1 0  9995","SITE":"AFETR","TLE_LINE2":"2 48685  53.0439 114.1599 0001542  56.8574 170.8195 15.48747854  3685","ELEMENT_SET_NO":"999","TIME_SYSTEM":"UTC","MEAN_ANOMALY":"170.8195","EPHEMERIS_TYPE":"0","CENTER_NAME":"EARTH","NORAD_CAT_ID":"48685","REF_FRAME":"TEME","OBJECT_NAME":"STARLINK-2751","APOAPSIS":"421.438","PERIOD":"92.978","ARG_OF_PERICENTER":"56.8574","MEAN_MOTION_DOT":"-0.01082721","CLASSIFICATION_TYPE":"U","OBJECT_ID":"2021-044AZ","BSTAR":"-0.02191900000000","ECCENTRICITY":"0.00015420"},{"DECAY_DATE":null,"EPOCH":"2021-10-08T22:00:00.999936","GP_ID":"186597552","INCLINATION":"53.0435","LAUNCH_DATE":"2021-05-26","REV_AT_EPOCH":"365","MEAN_MOTION_DDOT":"0.0000000000000","RA_OF_ASC_NODE":"117.0266","MEAN_MOTION":"15.22579993","COUNTRY_CODE":"US","OBJECT_TYPE":"PAYLOAD","TLE_LINE1":"1 48686U 21044BA  21281.91667824 -.01062647  00000-0 -49319-1 0  9995","RCS_SIZE":"LARGE","PERIAPSIS":"497.060","TLE_LINE2":"2 48686  53.0435 117.0266 0001460  66.5477  65.8201 15.22579993  3651","SITE":"AFETR","SEMIMAJOR_AXIS":"6876.199","MEAN_ELEMENT_THEORY":"SGP4","FILE":"3152020","CENTER_NAME":"EARTH","EPHEMERIS_TYPE":"0","TIME_SYSTEM":"UTC","ELEMENT_SET_NO":"999","MEAN_ANOMALY":"65.8201","CLASSIFICATION_TYPE":"U","OBJECT_ID":"2021-044BA","ECCENTRICITY":"0.00014600","BSTAR":"-0.04931900000000","REF_FRAME":"TEME","NORAD_CAT_ID":"48686","APOAPSIS":"499.068","OBJECT_NAME":"STARLINK-2629","PERIOD":"94.576","ARG_OF_PERICENTER":"66.5477","MEAN_MOTION_DOT":"-0.01062647"},{"OBJECT_ID":"2021-044BB","BSTAR":"-0.00975090000000","ECCENTRICITY":"0.00012530","CLASSIFICATION_TYPE":"U","ARG_OF_PERICENTER":"62.4033","PERIOD":"91.884","MEAN_MOTION_DOT":"-0.00965948","REF_FRAME":"TEME","NORAD_CAT_ID":"48687","OBJECT_NAME":"STARLINK-2627","APOAPSIS":"367.768","EPHEMERIS_TYPE":"0","CENTER_NAME":"EARTH","MEAN_ANOMALY":"231.7930","ELEMENT_SET_NO":"999","TIME_SYSTEM":"UTC","PERIAPSIS":"366.077","RCS_SIZE":"LARGE","TLE_LINE1":"1 48687U 21044BB  21281.91667824 -.00965948  00000-0 -97509-2 0  9996","TLE_LINE2":"2 48687  53.0421 113.1846 0001253  62.4033 231.7930 15.67199427  3686","SITE":"AFETR","FILE":"3152020","MEAN_ELEMENT_THEORY":"SGP4","SEMIMAJOR_AXIS":"6745.058","LAUNCH_DATE":"2021-05-26","MEAN_MOTION_DDOT":"0.0000000000000","REV_AT_EPOCH":"368","EPOCH":"2021-10-08T22:00:00.999936","DECAY_DATE":null,"INCLINATION":"53.0421","GP_ID":"186597763","OBJECT_TYPE":"PAYLOAD","RA_OF_ASC_NODE":"113.1846","MEAN_MOTION":"15.67199427","COUNTRY_CODE":"US"}];
